start=new Date('2023-05-24T00:00:00.000Z').valueOf();
sats=[{"TIME_SYSTEM":"UTC","ELEMENT_SET_NO":"999","EPOCH":"2023-05-23T21:21:43.571232","REV_AT_EPOCH":"12918","OBJECT_ID":"2021-005Q","INCLINATION":"53.0538","GP_ID":"232401236","BSTAR":"0.00081622000000","MEAN_MOTION_DDOT":"0.0000000000000","RA_OF_ASC_NODE":"324.1685","SITE":"AFETR","APOAPSIS":"547.738","CENTER_NAME":"EARTH","TLE_LINE2":"2 47363  53.0538 324.1685 0000768 107.9322 252.1751 15.06402458129182","LAUNCH_DATE":"2021-01-20","TLE_LINE1":"1 47363U 21005Q   23143.89008763  .00011898  00000-0  81622-3 0  9994","CLASSIFICATION_TYPE":"U","OBJECT_TYPE":"PAYLOAD","COUNTRY_CODE":"US","RCS_SIZE":"LARGE","EPHEMERIS_TYPE":"0","NORAD_CAT_ID":"47363","PERIOD":"95.592","SEMIMAJOR_AXIS":"6925.341","ECCENTRICITY":"0.00007680","PERIAPSIS":"546.674","OBJECT_NAME":"STARLINK-2077","ARG_OF_PERICENTER":"107.9322","MEAN_ANOMALY":"252.1751","MEAN_MOTION_DOT":"0.00011898","MEAN_MOTION":"15.06402458","REF_FRAME":"TEME","DECAY_DATE":null,"MEAN_ELEMENT_THEORY":"SGP4","FILE":"3915766"},{"SEMIMAJOR_AXIS":"6925.332","ECCENTRICITY":"0.00006490","OBJECT_NAME":"STARLINK-2081","PERIAPSIS":"546.747","COUNTRY_CODE":"US","OBJECT_TYPE":"PAYLOAD","RCS_SIZE":"LARGE","CLASSIFICATION_TYPE":"U","EPHEMERIS_TYPE":"0","NORAD_CAT_ID":"47366","PERIOD":"95.592","MEAN_MOTION":"15.06405520","MEAN_MOTION_DOT":"0.00020479","REF_FRAME":"TEME","MEAN_ELEMENT_THEORY":"SGP4","DECAY_DATE":null,"FILE":"3915766","ARG_OF_PERICENTER":"77.3485","MEAN_ANOMALY":"282.7577","BSTAR":"0.00138950000000","GP_ID":"232401988","MEAN_MOTION_DDOT":"0.0000000000000","TIME_SYSTEM":"UTC","EPOCH":"2023-05-23T21:58:53.292576","ELEMENT_SET_NO":"999","OBJECT_ID":"2021-005T","REV_AT_EPOCH":"12918","INCLINATION":"53.0542","LAUNCH_DATE":"2021-01-20","TLE_LINE1":"1 47366U 21005T   23143.91589459  .00020479  00000-0  13895-2 0  9997","RA_OF_ASC_NODE":"324.0471","APOAPSIS":"547.646","SITE":"AFETR","TLE_LINE2":"2 47366  53.0542 324.0471 0000649  77.3485 282.7577 15.06405520129188","CENTER_NAME":"EARTH"},{"TIME_SYSTEM":"UTC","ELEMENT_SET_NO":"999","EPOCH":"2023-05-23T21:00:28.860192","OBJECT_ID":"2021-005U","INCLINATION":"53.0543","REV_AT_EPOCH":"12918","GP_ID":"232402237","BSTAR":"0.00149180000000","MEAN_MOTION_DDOT":"0.0000000000000","RA_OF_ASC_NODE":"324.2334","APOAPSIS":"547.927","SITE":"AFETR","CENTER_NAME":"EARTH","TLE_LINE2":"2 47367  53.0543 324.2334 0001017  76.3842 283.7260 15.06397088129185","LAUNCH_DATE":"2021-01-20","TLE_LINE1":"1 47367U 21005U   23143.87533403  .00022007  00000-0  14918-2 0  9997","CLASSIFICATION_TYPE":"U","COUNTRY_CODE":"US","RCS_SIZE":"LARGE","OBJECT_TYPE":"PAYLOAD","EPHEMERIS_TYPE":"0","NORAD_CAT_ID":"47367","PERIOD":"95.592","SEMIMAJOR_AXIS":"6925.357","ECCENTRICITY":"0.00010170","PERIAPSIS":"546.518","OBJECT_NAME":"STARLINK-2082","ARG_OF_PERICENTER":"76.3842","MEAN_ANOMALY":"283.7260","MEAN_MOTION_DOT":"0.00022007","MEAN_MOTION":"15.06397088","REF_FRAME":"TEME","DECAY_DATE":null,"MEAN_ELEMENT_THEORY":"SGP4","FILE":"3915766"},{"DECAY_DATE":null,"MEAN_ELEMENT_THEORY":"SGP4","MEAN_MOTION":"15.06414143","MEAN_MOTION_DOT":"0.00015071","REF_FRAME":"TEME","FILE":"3915766","ARG_OF_PERICENTER":"65.6604","MEAN_ANOMALY":"294.4514","SEMIMAJOR_AXIS":"6925.305","PERIAPSIS":"546.310","OBJECT_NAME":"STARLINK-2084","ECCENTRICITY":"0.00012420","CLASSIFICATION_TYPE":"U","OBJECT_TYPE":"PAYLOAD","COUNTRY_CODE":"US","RCS_SIZE":"LARGE","PERIOD":"95.591","NORAD_CAT_ID":"47368","EPHEMERIS_TYPE":"0","LAUNCH_DATE":"2021-01-20","TLE_LINE1":"1 47368U 21005V   23143.93432049  .00015071  00000-0  10281-2 0  9991","RA_OF_ASC_NODE":"323.9663","CENTER_NAME":"EARTH","TLE_LINE2":"2 47368  53.0544 323.9663 0001242  65.6604 294.4514 15.06414143129199","APOAPSIS":"548.030","SITE":"AFETR","GP_ID":"232400486","BSTAR":"0.00102810000000","MEAN_MOTION_DDOT":"0.0000000000000","ELEMENT_SET_NO":"999","EPOCH":"2023-05-23T22:25:25.290336","TIME_SYSTEM":"UTC","INCLINATION":"53.0544","OBJECT_ID":"2021-005V","REV_AT_EPOCH":"12919"},{"MEAN_MOTION_DOT":"0.00020957","MEAN_MOTION":"15.06395546","REF_FRAME":"TEME","DECAY_DATE":null,"MEAN_ELEMENT_THEORY":"SGP4","FILE":"3915766","ARG_OF_PERICENTER":"90.9910","MEAN_ANOMALY":"269.1189","SEMIMAJOR_AXIS":"6925.362","ECCENTRICITY":"0.00009530","PERIAPSIS":"546.567","OBJECT_NAME":"STARLINK-2085","CLASSIFICATION_TYPE":"U","COUNTRY_CODE":"US","RCS_SIZE":"LARGE","OBJECT_TYPE":"PAYLOAD","EPHEMERIS_TYPE":"0","PERIOD":"95.592","NORAD_CAT_ID":"47369","LAUNCH_DATE":"2021-01-20","TLE_LINE1":"1 47369U 21005W   23143.87255823  .00020957  00000-0  14218-2 0  9991","RA_OF_ASC_NODE":"304.2364","APOAPSIS":"547.887","SITE":"AFETR","CENTER_NAME":"EARTH","TLE_LINE2":"2 47369  53.0541 304.2364 0000953  90.9910 269.1189 15.06395546129468","GP_ID":"232400736","BSTAR":"0.00142180000000","MEAN_MOTION_DDOT":"0.0000000000000","TIME_SYSTEM":"UTC","ELEMENT_SET_NO":"999","EPOCH":"2023-05-23T20:56:29.031072","INCLINATION":"53.0541","OBJECT_ID":"2021-005W","REV_AT_EPOCH":"12946"},{"RA_OF_ASC_NODE":"285.0258","SITE":"AFETR","APOAPSIS":"547.634","CENTER_NAME":"EARTH","TLE_LINE2":"2 47370  53.0549 285.0258 0000586  97.3619 262.7437 15.06395080129722","LAUNCH_DATE":"2021-01-20","TLE_LINE1":"1 47370U 21005X   23143.69842027  .00008041  00000-0  55814-3 0  9999","TIME_SYSTEM":"UTC","ELEMENT_SET_NO":"999","EPOCH":"2023-05-23T16:45:43.511328","INCLINATION":"53.0549","REV_AT_EPOCH":"12972","OBJECT_ID":"2021-005X","GP_ID":"232401488","BSTAR":"0.00055814000000","MEAN_MOTION_DDOT":"0.0000000000000","ARG_OF_PERICENTER":"97.3619","MEAN_ANOMALY":"262.7437","MEAN_MOTION_DOT":"0.00008041","MEAN_MOTION":"15.06395080","REF_FRAME":"TEME","DECAY_DATE":null,"MEAN_ELEMENT_THEORY":"SGP4","FILE":"3915766","CLASSIFICATION_TYPE":"U","OBJECT_TYPE":"PAYLOAD","COUNTRY_CODE":"US","RCS_SIZE":"LARGE","EPHEMERIS_TYPE":"0","NORAD_CAT_ID":"47370","PERIOD":"95.592","SEMIMAJOR_AXIS":"6925.364","ECCENTRICITY":"0.00005860","PERIAPSIS":"546.823","OBJECT_NAME":"STARLINK-2086"},{"RA_OF_ASC_NODE":"323.8998","APOAPSIS":"547.744","SITE":"AFETR","CENTER_NAME":"EARTH","TLE_LINE2":"2 47371  53.0539 323.8998 0000786  97.7073 262.4006 15.06404534129199","LAUNCH_DATE":"2021-01-20","TLE_LINE1":"1 47371U 21005Y   23143.94906413  .00019705  00000-0  13379-2 0  9996","TIME_SYSTEM":"UTC","ELEMENT_SET_NO":"999","EPOCH":"2023-05-23T22:46:39.140832","OBJECT_ID":"2021-005Y","REV_AT_EPOCH":"12919","INCLINATION":"53.0539","GP_ID":"232401737","BSTAR":"0.00133790000000","MEAN_MOTION_DDOT":"0.0000000000000","ARG_OF_PERICENTER":"97.7073","MEAN_ANOMALY":"262.4006","MEAN_MOTION":"15.06404534","MEAN_MOTION_DOT":"0.00019705","REF_FRAME":"TEME","DECAY_DATE":null,"MEAN_ELEMENT_THEORY":"SGP4","FILE":"3915766","CLASSIFICATION_TYPE":"U","COUNTRY_CODE":"US","OBJECT_TYPE":"PAYLOAD","RCS_SIZE":"LARGE","EPHEMERIS_TYPE":"0","PERIOD":"95.592","NORAD_CAT_ID":"47371","SEMIMAJOR_AXIS":"6925.335","ECCENTRICITY":"0.00007860","PERIAPSIS":"546.655","OBJECT_NAME":"STARLINK-2088"},{"TIME_SYSTEM":"UTC","EPOCH":"2023-05-23T22:39:24.639552","ELEMENT_SET_NO":"999","REV_AT_EPOCH":"12925","INCLINATION":"53.0542","OBJECT_ID":"2021-005Z","BSTAR":"0.00148780000000","GP_ID":"232400987","MEAN_MOTION_DDOT":"0.0000000000000","RA_OF_ASC_NODE":"319.2413","SITE":"AFETR","APOAPSIS":"547.749","TLE_LINE2":"2 47372  53.0542 319.2413 0000826  98.4880 261.6202 15.06411986129259","CENTER_NAME":"EARTH","LAUNCH_DATE":"2021-01-20","TLE_LINE1":"1 47372U 21005Z   23143.94403518  .00021956  00000-0  14878-2 0  9991","COUNTRY_CODE":"US","OBJECT_TYPE":"PAYLOAD","RCS_SIZE":"LARGE","CLASSIFICATION_TYPE":"U","EPHEMERIS_TYPE":"0","PERIOD":"95.591","NORAD_CAT_ID":"47372","SEMIMAJOR_AXIS":"6925.312","ECCENTRICITY":"0.00008260","OBJECT_NAME":"STARLINK-2089","PERIAPSIS":"546.605","ARG_OF_PERICENTER":"98.4880","MEAN_ANOMALY":"261.6202","REF_FRAME":"TEME","MEAN_MOTION_DOT":"0.00021956","MEAN_MOTION":"15.06411986","DECAY_DATE":null,"MEAN_ELEMENT_THEORY":"SGP4","FILE":"3915766"},{"ARG_OF_PERICENTER":"109.1367","MEAN_ANOMALY":"250.9702","DECAY_DATE":null,"MEAN_ELEMENT_THEORY":"SGP4","MEAN_MOTION":"15.06403035","MEAN_MOTION_DOT":"0.00019638","REF_FRAME":"TEME","FILE":"3915766","CLASSIFICATION_TYPE":"U","RCS_SIZE":"LARGE","COUNTRY_CODE":"US","OBJECT_TYPE":"PAYLOAD","NORAD_CAT_ID":"47373","PERIOD":"95.592","EPHEMERIS_TYPE":"0","SEMIMAJOR_AXIS":"6925.339","PERIAPSIS":"546.690","OBJECT_NAME":"STARLINK-2092","ECCENTRICITY":"0.00007420","RA_OF_ASC_NODE":"323.9201","CENTER_NAME":"EARTH","TLE_LINE2":"2 47373  53.0540 323.9201 0000742 109.1367 250.9702 15.06403035129197","APOAPSIS":"547.718","SITE":"AFETR","LAUNCH_DATE":"2021-01-20","TLE_LINE1":"1 47373U 21005AA  23143.94537728  .00019638  00000-0  13335-2 0  9994","ELEMENT_SET_NO":"999","EPOCH":"2023-05-23T22:41:20.596992","TIME_SYSTEM":"UTC","INCLINATION":"53.0540","OBJECT_ID":"2021-005AA","REV_AT_EPOCH":"12919","GP_ID":"232401237","BSTAR":"0.00133350000000","MEAN_MOTION_DDOT":"0.0000000000000"},{"MEAN_MOTION_DOT":"0.00022070","REF_FRAME":"TEME","MEAN_MOTION":"15.06402830","DECAY_DATE":null,"MEAN_ELEMENT_THEORY":"SGP4","FILE":"3915766","ARG_OF_PERICENTER":"105.3198","MEAN_ANOMALY":"254.7875","SEMIMAJOR_AXIS":"6925.340","ECCENTRICITY":"0.00007600","OBJECT_NAME":"STARLINK-2093","PERIAPSIS":"546.679","OBJECT_TYPE":"PAYLOAD","COUNTRY_CODE":"US","RCS_SIZE":"LARGE","CLASSIFICATION_TYPE":"U","EPHEMERIS_TYPE":"0","PERIOD":"95.592","NORAD_CAT_ID":"47374","LAUNCH_DATE":"2021-01-20","TLE_LINE1":"1 47374U 21005AB  23143.90020706  .00022070  00000-0  14958-2 0  9990","RA_OF_ASC_NODE":"324.1201","APOAPSIS":"547.731","SITE":"AFETR","TLE_LINE2":"2 47374  53.0541 324.1201 0000760 105.3198 254.7875 15.06402830129186","CENTER_NAME":"EARTH","BSTAR":"0.00149580000000","GP_ID":"232401989","MEAN_MOTION_DDOT":"0.0000000000000","TIME_SYSTEM":"UTC","EPOCH":"2023-05-23T21:36:17.889984","ELEMENT_SET_NO":"999","INCLINATION":"53.0541","OBJECT_ID":"2021-005AB","REV_AT_EPOCH":"12918"}];
